      2.10          N: GNSS NAV DATA                        RINEX VERSION / TYPE
fic2rin                                 10/09/2020 00:17:43 PGM / RUN BY / DATE
                                                            END OF HEADER
11 20 10  8 19 59 44.0-1.424127258360e-04 1.057287590811e-11 0.000000000000e+00
    2.100000000000e+01-6.487500000000e+01 5.592375802042e-09-3.771453352170e-01
   -3.535300493240e-06 1.580494444352e-02 4.541128873825e-06 5.153724088669e+03
    4.175840000000e+05-2.626329660416e-07 2.103472237948e-01-1.322478055954e-07
    9.138172100291e-01 2.680937500000e+02 2.054050245335e+00-8.982159857297e-09
    8.071764792831e-11 1.000000000000e+00 2.126000000000e+03 0.000000000000e+00
    2.400000000000e+00 0.000000000000e+00-1.210719347000e-08 2.100000000000e+01
    4.156800000000e+05 4.000000000000e+00
28 20 10  8 19 59 44.0 6.699478253722e-04-4.433786671143e-12 0.000000000000e+00
    8.000000000000e+00 8.812500000000e+01 3.911234347181e-09 3.098662291196e+00
    4.589557647705e-06 1.843765017111e-02 6.793066859245e-06 5.153673151016e+03
    4.175840000000e+05 2.142041921616e-07-1.315400906288e+00 6.519258022308e-08
    9.755321178913e-01 2.536562500000e+02-1.390491281463e+00-7.569958176286e-09
   -8.393206753608e-11 1.000000000000e+00 2.126000000000e+03 0.000000000000e+00
    2.400000000000e+00 0.000000000000e+00-1.117587089539e-08 8.000000000000e+00
    4.167600000000e+05 4.000000000000e+00
 7 20 10  8 21 59 44.0-3.893487155437e-04-7.958078640513e-12 0.000000000000e+00
    3.000000000000e+00 3.681250000000e+01 4.884132015131e-09 5.296595540121e-01
    2.106651663780e-06 1.422321482096e-02 8.597970008850e-06 5.153637842178e+03
    4.247840000000e+05-5.587935447693e-08-2.446286399773e+00 1.341104507446e-07
    9.527662174630e-01 2.100000000000e+02-2.363058756368e+00-8.283559329210e-09
   -4.378753821244e-10 1.000000000000e+00 2.126000000000e+03 0.000000000000e+00
    2.400000000000e+00 0.000000000000e+00-1.117587089539e-08 3.000000000000e+00
    4.176000000000e+05 4.000000000000e+00
11 20 10  8 21 59 44.0-1.423368230462e-04 1.057287590811e-11 0.000000000000e+00
    4.500000000000e+01-5.681250000000e+01 5.662021560211e-09 6.730273412617e-01
   -3.194436430931e-06 1.580377493519e-02 4.425644874573e-06 5.153721782684e+03
    4.247840000000e+05-8.009374141693e-08 2.102827778646e-01-2.682209014893e-07
    9.138171383461e-01 2.699375000000e+02 2.054036065270e+00-9.012161106970e-09
   -2.678683006471e-11 1.000000000000e+00 2.126000000000e+03 0.000000000000e+00
    2.400000000000e+00 0.000000000000e+00-1.210719347000e-08 4.500000000000e+01
    4.176000000000e+05 4.000000000000e+00
26 20 10  8 21 59 44.0 2.920697443187e-04 6.252776074689e-12 0.000000000000e+00
    2.100000000000e+01 6.603125000000e+01 4.770555855657e-09-9.676516590785e-01
    3.453344106674e-06 5.049773841165e-03 6.562098860741e-06 5.153692304611e+03
    4.247840000000e+05 1.080334186554e-07-1.446418191981e+00-9.126961231232e-08
    9.446501352127e-01 2.469687500000e+02 1.983287797726e-01-8.224271145333e-09
   -1.542921411727e-10 1.000000000000e+00 2.126000000000e+03 0.000000000000e+00
    2.400000000000e+00 0.000000000000e+00 6.984919309616e-09 2.100000000000e+01
    4.176000000000e+05 4.000000000000e+00
28 20 10  8 21 59 44.0 6.699156947434e-04-4.433786671143e-12 0.000000000000e+00
    4.200000000000e+01 9.509375000000e+01 4.008381250883e-09-2.134352833780e+00
    4.980713129044e-06 1.843893539626e-02 6.467103958130e-06 5.153670948029e+03
    4.247840000000e+05 2.402812242508e-07-1.315455135198e+00 2.812594175339e-07
    9.755311421249e-01 2.627187500000e+02-1.390483267598e+00-7.679962758418e-09
   -1.296482575132e-10 1.000000000000e+00 2.126000000000e+03 0.000000000000e+00
    2.400000000000e+00 0.000000000000e+00-1.117587089539e-08 4.200000000000e+01
    4.176000000000e+05 4.000000000000e+00
 2 20 10  8 22  0  0.0-5.270433612168e-04-5.002220859751e-12 0.000000000000e+00
    9.200000000000e+01-8.240625000000e+01 4.310536694013e-09 1.432711707268e+00
   -4.531815648079e-06 1.989315287210e-02 5.964189767838e-06 5.153800355911e+03
    4.248000000000e+05-8.381903171539e-08 6.143537537741e-01-4.991888999939e-07
    9.607426232209e-01 2.660625000000e+02-1.599620814673e+00-8.180697901761e-09
    8.857511808063e-11 1.000000000000e+00 2.126000000000e+03 0.000000000000e+00
    2.400000000000e+00 0.000000000000e+00-1.769512891769e-08 9.200000000000e+01
    4.176000000000e+05 4.000000000000e+00
 1 20 10  8 22  0  0.0 3.379257395864e-05-1.818989403546e-12 0.000000000000e+00
    7.800000000000e+01-7.553125000000e+01 3.920877606005e-09 1.217572490496e+00
   -3.995373845100e-06 1.009032956790e-02 7.189810276031e-06 5.153702127457e+03
    4.248000000000e+05-1.098960638046e-07 6.933802036686e-01 8.009374141693e-08
    9.818103361585e-01 2.525312500000e+02 8.281020294992e-01-7.955688529218e-09
   -3.535861568541e-11 1.000000000000e+00 2.126000000000e+03 0.000000000000e+00
    2.400000000000e+00 0.000000000000e+00 5.122274160385e-09 7.800000000000e+01
    4.176000000000e+05 4.000000000000e+00
 3 20 10  8 22  0  0.0-3.209747374058e-04-1.034550223267e-11 0.000000000000e+00
    2.600000000000e+01-3.146875000000e+01 4.442327897931e-09 4.232207374139e-02
   -1.708045601845e-06 3.269825712778e-03 8.830800652504e-06 5.153732284546e+03
    4.248000000000e+05-9.313225746155e-09 1.733084454884e+00 9.499490261078e-08
    9.666032822437e-01 2.173750000000e+02 8.860250580887e-01-7.924615806343e-09
    4.060883437809e-10 1.000000000000e+00 2.126000000000e+03 0.000000000000e+00
    2.400000000000e+00 0.000000000000e+00 1.862645149231e-09 2.600000000000e+01
    4.176000000000e+05 4.000000000000e+00
 5 20 10  8 22  0  0.0-2.293707802892e-05-9.094947017729e-13 0.000000000000e+00
    5.500000000000e+01-4.237500000000e+01 4.661979904461e-09-2.179418475790e+00
   -2.428889274597e-06 6.123632658273e-03 8.042901754379e-06 5.153745706558e+03
    4.248000000000e+05 9.872019290924e-08 1.699338956357e+00-1.117587089539e-08
    9.535207979229e-01 2.162812500000e+02 8.821255621733e-01-7.963188841636e-09
    4.260891768959e-10 1.000000000000e+00 2.126000000000e+03 0.000000000000e+00
    2.400000000000e+00 0.000000000000e+00-1.117587089539e-08 5.500000000000e+01
    4.176000000000e+05 4.000000000000e+00
 6 20 10  8 22  0  0.0-3.318483941257e-04-2.614797267597e-12 0.000000000000e+00
    7.000000000000e+01-8.293750000000e+01 3.841588589013e-09 1.608832492365e+00
   -4.192814230919e-06 1.843977253884e-03 6.876885890961e-06 5.153633666992e+03
    4.248000000000e+05 7.823109626770e-08 6.851322905557e-01-1.490116119385e-08
    9.813410276500e-01 2.561562500000e+02-1.144192936571e+00-7.827826060376e-09
    9.286101089098e-11 1.000000000000e+00 2.126000000000e+03 0.000000000000e+00
    2.400000000000e+00 0.000000000000e+00 4.190951585770e-09 7.000000000000e+01
    4.176000000000e+05 4.000000000000e+00
 8 20 10  8 22  0  0.0-5.077151581645e-05-1.364242052659e-12 0.000000000000e+00
    4.800000000000e+01 5.312500000000e-01 4.307679432139e-09-2.756365131934e+00
    8.940696716309e-08 5.544568295591e-03 3.712251782417e-06 5.153731933594e+03
    4.248000000000e+05-3.539025783539e-08-3.775730661309e-01-2.048909664154e-08
    9.691632469794e-01 3.137500000000e+02-6.860658619684e-02-8.121052560151e-09
   -2.035799084918e-11 1.000000000000e+00 2.126000000000e+03 0.000000000000e+00
    2.400000000000e+00 0.000000000000e+00 5.122274160385e-09 4.800000000000e+01
    4.176000000000e+05 4.000000000000e+00
 4 20 10  8 22  0  0.0-1.432523131371e-04-3.979039320257e-12 0.000000000000e+00
    1.920000000000e+02-4.625000000000e+00 4.864488339751e-09 2.758786199913e+00
   -1.192092895508e-07 8.421242237091e-04 7.333233952522e-06 5.153617925644e+03
    4.248000000000e+05-2.235174179077e-08 2.812778481731e+00-1.117587089539e-08
    9.604147964456e-01 2.399062500000e+02-2.927916885936e+00-8.020334079107e-09
    4.607334771129e-11 1.000000000000e+00 2.126000000000e+03 0.000000000000e+00
    2.400000000000e+00 0.000000000000e+00-4.190951585770e-09 9.600000000000e+02
    4.176000000000e+05 4.000000000000e+00
 9 20 10  8 22  0  0.0-2.974229864776e-04-5.343281372916e-12 0.000000000000e+00
    3.300000000000e+01-6.718750000000e+00 5.044852995520e-09-2.461572234753e+00
   -2.775341272354e-07 1.848089275882e-03 7.109716534615e-06 5.153634456635e+03
    4.248000000000e+05 5.587935447693e-09 2.763815601088e+00 2.980232238770e-08
    9.531567975722e-01 2.390312500000e+02 1.754228200063e+00-8.101766042504e-09
    8.928943354902e-11 1.000000000000e+00 2.126000000000e+03 0.000000000000e+00
    2.400000000000e+00 0.000000000000e+00 1.396983861923e-09 3.300000000000e+01
    4.176000000000e+05 4.000000000000e+00
10 20 10  8 22  0  0.0-4.748268984258e-04-9.549694368616e-12 0.000000000000e+00
    2.900000000000e+01-3.396875000000e+01 4.414112436929e-09-7.746700058066e-01
   -1.706182956696e-06 5.964822834358e-03 8.201226592064e-06 5.153668077469e+03
    4.248000000000e+05 1.229345798492e-07 1.730100665226e+00 4.284083843231e-08
    9.665249576097e-01 2.229375000000e+02-2.664546566477e+00-7.945688112660e-09
    3.310852195998e-10 1.000000000000e+00 2.126000000000e+03 0.000000000000e+00
    2.400000000000e+00 0.000000000000e+00 2.328306436539e-09 2.900000000000e+01
    4.176000000000e+05 4.000000000000e+00
12 20 10  8 22  0  0.0 5.668122321367e-05-5.115907697473e-12 0.000000000000e+00
    8.200000000000e+01 7.253125000000e+01 4.214818421248e-09-1.571211292286e-01
    3.796070814133e-06 7.916131406091e-03 6.653368473053e-06 5.153622901917e+03
    4.248000000000e+05-5.029141902924e-08-1.337954538766e+00 1.043081283569e-07
    9.763019873080e-01 2.591562500000e+02 1.168698242207e+00-8.084265313528e-09
   -1.096474243982e-10 1.000000000000e+00 2.126000000000e+03 0.000000000000e+00
    2.400000000000e+00 0.000000000000e+00-1.210719347000e-08 8.200000000000e+01
    4.176000000000e+05 4.000000000000e+00
